BEIDOU 3 (C01)          
1 36287U 10001A   21338.90914319 -.00000272  00000+0  00000+0 0  9991
2 36287   1.7622  44.0320 0001111  52.6294  84.9759  1.00269143 43567
BEIDOU 5 (C06)          
1 36828U 10036A   21338.74339053 -.00000028  00000+0  00000+0 0  9997
2 36828  54.1803 178.0221 0023611 174.5699  93.6938  1.00254450 41627
BEIDOU 6 (C04)          
1 37210U 10057A   21338.84128735 -.00000101  00000+0  00000+0 0  9992
2 37210   0.8231  45.2084 0007287 160.9021 330.7209  1.00270871 40683
BEIDOU 7 (C07)          
1 37256U 10068A   21338.28440039 -.00000217  00000+0  00000+0 0  9994
2 37256  50.5633 291.9807 0016146 190.9562 159.4049  1.00254964 40189
BEIDOU 8 (C08)          
1 37384U 11013A   21338.93908924 -.00000200  00000+0  00000+0 0  9993
2 37384  60.0138  56.1979 0019437 188.0418 272.6007  1.00261832 39072
BEIDOU 9 (C09)          
1 37763U 11038A   21338.81015581  .00000005  00000+0  00000+0 0  9998
2 37763  54.4671 180.4890 0086127 225.4935  55.2094  1.00275162 38043
BEIDOU 10 (C10)         
1 37948U 11073A   21339.01358006 -.00000159  00000+0  00000+0 0  9998
2 37948  50.6743 291.5965 0077465 218.9655  21.4116  1.00255059 36809
BEIDOU 11 (C05)         
1 38091U 12008A   21339.15649822  .00000066  00000+0  00000+0 0  9997
2 38091   1.9264  71.1601 0004472 267.3458 210.7102  1.00270983 35880
BEIDOU 12 (C11)         
1 38250U 12018A   21338.23710662 -.00000070  00000+0  00000+0 0  9990
2 38250  56.7360   0.0092 0024844 249.6718 116.9338  1.86234473 65456
BEIDOU 13 (C12)         
1 38251U 12018B   21338.26615247 -.00000071  00000+0  00000+0 0  9998
2 38251  56.6555 359.3452 0015722 251.7099 178.6716  1.86234232 65451
BEIDOU 15 (C14)         
1 38775U 12050B   21338.80488440  .00000023  00000+0  00000+0 0  9994
2 38775  55.2925 118.2415 0011471 327.5631 301.0506  1.86231290 62839
BEIDOU 16 (C02)         
1 38953U 12059A   21338.76160534 -.00000165  00000+0  00000+0 0  9995
2 38953   1.5072  84.3521 0010535 275.2789  72.3973  1.00270441 33446
BEIDOU 17 (C31)         
1 40549U 15019A   21338.90033414 -.00000189  00000+0  00000+0 0  9996
2 40549  52.2179 315.0144 0037089 191.4425 347.2837  1.00284818 24485
BEIDOU 18 (C57)         
1 40748U 15037A   21337.49932554 -.00000068  00000+0  00000+0 0  9999
2 40748  55.9142 358.3563 0002434 321.8193 224.1617  1.86233453 43267
BEIDOU 19 (C58)         
1 40749U 15037B   21338.62208748 -.00000074  00000+0  00000+0 0  9994
2 40749  55.9178 358.3085 0005730 293.0256  61.0416  1.86232199 43270
BEIDOU 20 (C18)         
1 40938U 15053A   21338.94365184 -.00000148  00000+0  00000+0 0  9997
2 40938  51.8051 278.1096 0043297 196.3480  33.5773  1.00289385 22755
BEIDOU IGSO-6 (C13)     
1 41434U 16021A   21338.90612025 -.00000181  00000+0  00000+0 0  9997
2 41434  57.8180  54.8596 0044834 213.7238 227.4670  1.00279886 20880
BEIDOU-2 G7 (C03)       
1 41586U 16037A   21338.90321236 -.00000345  00000+0  00000+0 0  9995
2 41586   1.5494  65.7472 0008018   3.9545  79.8956  1.00275384 20199
BEIDOU-3 M1 (C19)       
1 43001U 17069A   21339.13974905  .00000022  00000+0  00000+0 0  9999
2 43001  55.4466 118.2046 0007201 287.0975   2.1316  1.86231708 27772
BEIDOU-3 M2 (C20)       
1 43002U 17069B   21337.61751071  .00000033  00000+0  00000+0 0  9990
2 43002  55.4453 118.2913 0005630 319.4670  72.4082  1.86231398 27740
BEIDOU-3 M3 (C27)       
1 43107U 18003A   21338.87059567 -.00000077  00000+0  00000+0 0  9994
2 43107  55.3607 359.3132 0003250  46.0594 271.9120  1.86232602 26524
BEIDOU-3 M4 (C28)       
1 43108U 18003B   21338.26439671 -.00000074  00000+0  00000+0 0  9993
2 43108  55.3548 359.3241 0004238 246.6571  69.8682  1.86230992 26516
BEIDOU-3 M5 (C21)       
1 43207U 18018A   21337.70210571  .00000032  00000+0  00000+0 0  9996
2 43207  55.4048 118.3733 0003905   1.1174 358.8482  1.86231594 25892
BEIDOU-3 M6 (C22)       
1 43208U 18018B   21337.76882701  .00000031  00000+0  00000+0 0  9992
2 43208  55.4043 118.3760 0005268 303.2395  56.6745  1.86231651 25892
BEIDOU-3 M7 (C29)       
1 43245U 18029A   21339.00429514 -.00000078  00000+0  00000+0 0  9995
2 43245  55.2831 357.0901 0001316 253.6816  64.2357  1.86232711 25062
BEIDOU-3 M8 (C30)       
1 43246U 18029B   21338.75128816 -.00000076  00000+0  10000-3 0  9991
2 43246  55.2817 357.1289 0003781 333.2728 221.3847  1.86233012 25056
BEIDOU IGSO-7 (C16)     
1 43539U 18057A   21338.97542910 -.00000045  00000+0  00000+0 0  9997
2 43539  55.0612 177.4319 0040115 221.2274 139.9675  1.00269654 12565
BEIDOU-3 M9 (C23)       
1 43581U 18062A   21338.53665403  .00000040  00000+0  00000+0 0  9999
2 43581  54.3392 238.7642 0004346 297.0136 324.1923  1.86231958 22793
BEIDOU-3 M10 (C24)      
1 43582U 18062B   21338.82052938  .00000039  00000+0  00000+0 0  9993
2 43582  54.3383 238.7439 0006404 359.3393 183.7613  1.86232460 22808
BEIDOU-3 M11 (C25)      
1 43602U 18067A   21338.75293519  .00000041  00000+0  00000+0 0  9998
2 43602  54.4173 237.3437 0007649   2.9951 176.5892  1.86231590 22290
BEIDOU-3 M12 (C26)      
1 43603U 18067B   21338.88804964  .00000041  00000+0  00000+0 0  9995
2 43603  54.4140 237.3062 0004889 353.5418 187.0491  1.86231516 22318
BEIDOU-3 M13 (C32)      
1 43622U 18072A   21338.63033560  .00000024  00000+0  00000+0 0  9992
2 43622  55.3712 117.9043 0004072 277.1341 120.5551  1.86231626 21822
BEIDOU-3 M14 (C33)      
1 43623U 18072B   21338.87089396  .00000023  00000+0  00000+0 0  9996
2 43623  55.3733 117.8879 0002254 326.4704 322.7353  1.86231631 21825
BEIDOU-3 M15 (C34)      
1 43647U 18078A   21339.07375873 -.00000078  00000+0  10000-3 0  9995
2 43647  55.1786 357.2635 0006359 346.1930 334.2951  1.86232493 21332
BEIDOU-3 M16 (C35)      
1 43648U 18078B   21338.44972132 -.00000075  00000+0  00000+0 0  9999
2 43648  55.1734 357.2921 0003691 351.8834 178.3750  1.86232385 21341
BEIDOU-3 G1 (C59)       
1 43683U 18085A   21338.89589689 -.00000267  00000+0  00000+0 0  9999
2 43683   0.8611 201.7017 0004694  46.7563 287.9847  1.00267562 11459
BEIDOU-3 M17 (C36)      
1 43706U 18093A   21338.34854030  .00000040  00000+0  00000+0 0  9997
2 43706  54.4191 238.6422 0009022 284.0337  75.9402  1.86231641 20701
BEIDOU-3 M18 (C37)      
1 43707U 18093B   21339.14798698  .00000037  00000+0  00000+0 0  9990
2 43707  54.4202 238.6045 0008697 307.3152 319.6874  1.86232285 20703
BEIDOU-3 IGSO-1 (C38)   
1 44204U 19023A   21338.61796227 -.00000239  00000+0  00000+0 0  9999
2 44204  56.2731  55.0765 0023260 190.1243 169.8693  1.00269797  9766
BEIDOU-2 G8             
1 44231U 19027A   21338.90992816 -.00000237  00000+0  00000+0 0  9995
2 44231   0.4252  57.5235 0006556 154.7944 333.7616  1.00270416  9472
BEIDOU-3 IGSO-2 (C39)   
1 44337U 19035A   21338.86650108 -.00000048  00000+0  00000+0 0  9991
2 44337  55.0985 173.4659 0020553 176.7385 154.1792  1.00260073  9098
BEIDOU-3 M23 (C45)      
1 44542U 19061A   21338.68072052  .00000040  00000+0  10000-3 0  9990
2 44542  54.6445 238.7342 0009189 340.5818 285.6485  1.86231243 14951
BEIDOU-3 M24 (C46)      
1 44543U 19061B   21338.27292063  .00000041  00000+0  10000-3 0  9993
2 44543  54.6440 238.7185 0006449 332.8706 291.0086  1.86231852 14941
BEIDOU-3 IGSO-3         
1 44709U 19073A   21338.45859638 -.00000208  00000+0  00000+0 0  9998
2 44709  57.5779 298.4031 0018973 187.1830 232.5713  1.00266159  7852
BEIDOU-3 M21            
1 44793U 19078A   21338.12452466 -.00000073  00000+0  10000-3 0  9993
2 44793  55.0266 357.3411 0005672 354.5807   3.7039  1.86232408 13807
BEIDOU-3 M22            
1 44794U 19078B   21338.19645231 -.00000074  00000+0  00000+0 0  9991
2 44794  55.0014 357.3341 0003781 343.2492 334.5513  1.86232881 13802
BEIDOU-3 M19            
1 44864U 19090A   21339.03868815  .00000022  00000+0  00000+0 0  9994
2 44864  55.3063 118.1117 0014538 263.0751  93.9776  1.86231850 13408
BEIDOU-3 M20            
1 44865U 19090B   21338.73896811  .00000024  00000+0  00000+0 0  9990
2 44865  55.3082 118.1534 0012662 279.2873 326.7129  1.86231811 13375
BEIDOU-3 G2             
1 45344U 20017A   21338.89710706 -.00000131  00000+0  00000+0 0  9999
2 45344   2.2323 343.1355 0001439 187.7671 306.0497  1.00271060  6666
BEIDOU-3 G3             
1 45807U 20040A   21339.04668646 -.00000342  00000+0  00000+0 0  9996
2 45807   1.8904 299.8178 0009015 345.5109 276.0152  1.00272860  5480
